[
  {
    "OBJECT_NAME": "NOAA 15",
    "OBJECT_ID": "1998-030A",
    "EPOCH": "2025-05-06T04:09:01.662624",
    "MEAN_MOTION": 14.26959392,
    "ECCENTRICITY": 0.0011521,
    "INCLINATION": 98.5378,
    "RA_OF_ASC_NODE": 152.1285,
    "ARG_OF_PERICENTER": 99.9137,
    "MEAN_ANOMALY": 260.3345,
    "EPHEMERIS_TYPE": 0,
    "CLASSIFICATION_TYPE": "U",
    "NORAD_CAT_ID": 25338,
    "ELEMENT_SET_NO": 999,
    "REV_AT_EPOCH": 40349,
    "BSTAR": 0.00015211,
    "MEAN_MOTION_DOT": 3.27e-06,
    "MEAN_MOTION_DDOT": 0
  },
  {
    "OBJECT_NAME": "NOAA 18",
    "OBJECT_ID": "2005-018A",
    "EPOCH": "2025-05-06T05:20:32.392896",
    "MEAN_MOTION": 14.13592221,
    "ECCENTRICITY": 0.0013528,
    "INCLINATION": 98.8421,
    "RA_OF_ASC_NODE": 206.0848,
    "ARG_OF_PERICENTER": 223.2053,
    "MEAN_ANOMALY": 136.8059,
    "EPHEMERIS_TYPE": 0,
    "CLASSIFICATION_TYPE": "U",
    "NORAD_CAT_ID": 28654,
    "ELEMENT_SET_NO": 999,
    "REV_AT_EPOCH": 2889,
    "BSTAR": 0.00017879,
    "MEAN_MOTION_DOT": 2.93e-06,
    "MEAN_MOTION_DDOT": 0
  },
  {
    "OBJECT_NAME": "NOAA 19",
    "OBJECT_ID": "2009-005A",
    "EPOCH": "2025-05-06T03:39:52.458336",
    "MEAN_MOTION": 14.13356229,
    "ECCENTRICITY": 0.0014858,
    "INCLINATION": 98.9989,
    "RA_OF_ASC_NODE": 190.6611,
    "ARG_OF_PERICENTER": 101.1747,
    "MEAN_ANOMALY": 259.1096,
    "EPHEMERIS_TYPE": 0,
    "CLASSIFICATION_TYPE": "U",
    "NORAD_CAT_ID": 33591,
    "ELEMENT_SET_NO": 999,
    "REV_AT_EPOCH": 83724,
    "BSTAR": 0.00015729,
    "MEAN_MOTION_DOT": 2.5e-06,
    "MEAN_MOTION_DDOT": 0
  },
  {
    "OBJECT_NAME": "SUOMI NPP",
    "OBJECT_ID": "2011-061A",
    "EPOCH": "2025-05-06T03:28:36.244416",
    "MEAN_MOTION": 14.19528947,
    "ECCENTRICITY": 0.0002472,
    "INCLINATION": 98.7561,
    "RA_OF_ASC_NODE": 65.7959,
    "ARG_OF_PERICENTER": 67.6289,
    "MEAN_ANOMALY": 292.5149,
    "EPHEMERIS_TYPE": 0,
    "CLASSIFICATION_TYPE": "U",
    "NORAD_CAT_ID": 37849,
    "ELEMENT_SET_NO": 999,
    "REV_AT_EPOCH": 70068,
    "BSTAR": 9.3379e-05,
    "MEAN_MOTION_DOT": 1.53e-06,
    "MEAN_MOTION_DDOT": 0
  },
  {
    "OBJECT_NAME": "NOAA 20 (JPSS-1)",
    "OBJECT_ID": "2017-073A",
    "EPOCH": "2025-05-06T03:51:05.436576",
    "MEAN_MOTION": 14.1953453,
    "ECCENTRICITY": 0.000199,
    "INCLINATION": 98.74,
    "RA_OF_ASC_NODE": 65.1827,
    "ARG_OF_PERICENTER": 58.1231,
    "MEAN_ANOMALY": 302.0138,
    "EPHEMERIS_TYPE": 0,
    "CLASSIFICATION_TYPE": "U",
    "NORAD_CAT_ID": 43013,
    "ELEMENT_SET_NO": 999,
    "REV_AT_EPOCH": 38672,
    "BSTAR": 8.2003e-05,
    "MEAN_MOTION_DOT": 1.29e-06,
    "MEAN_MOTION_DDOT": 0
  },
  {
    "OBJECT_NAME": "NOAA 21 (JPSS-2)",
    "OBJECT_ID": "2022-150A",
    "EPOCH": "2025-05-05T20:15:46.424448",
    "MEAN_MOTION": 14.19528971,
    "ECCENTRICITY": 4.95e-05,
    "INCLINATION": 98.7254,
    "RA_OF_ASC_NODE": 65.2239,
    "ARG_OF_PERICENTER": 295.89,
    "MEAN_ANOMALY": 64.2225,
    "EPHEMERIS_TYPE": 0,
    "CLASSIFICATION_TYPE": "U",
    "NORAD_CAT_ID": 54234,
    "ELEMENT_SET_NO": 999,
    "REV_AT_EPOCH": 12875,
    "BSTAR": 8.8787e-05,
    "MEAN_MOTION_DOT": 1.43e-06,
    "MEAN_MOTION_DDOT": 0
  }
]