NOAA 15                 
1 25338U 98030A   25126.17293591  .00000327  00000+0  15211-3 0  9998
2 25338  98.5378 152.1285 0011521  99.9137 260.3345 14.26959392403498
NOAA 18                 
1 28654U 05018A   25126.22259714  .00000293  00000+0  17879-3 0  9995
2 28654  98.8421 206.0848 0013528 223.2053 136.8059 14.13592221 28892
NOAA 19                 
1 33591U 09005A   25126.15269049  .00000250  00000+0  15729-3 0  9990
2 33591  98.9989 190.6611 0014858 101.1747 259.1096 14.13356229837248
SUOMI NPP               
1 37849U 11061A   25126.14486394  .00000153  00000+0  93379-4 0  9998
2 37849  98.7561  65.7959 0002472  67.6289 292.5149 14.19528947700686
NOAA 20 (JPSS-1)        
1 43013U 17073A   25126.16047959  .00000129  00000+0  82003-4 0  9994
2 43013  98.7400  65.1827 0001990  58.1231 302.0138 14.19534530386727
NOAA 21 (JPSS-2)        
1 54234U 22150A   25125.84428732  .00000143  00000+0  88787-4 0  9990
2 54234  98.7254  65.2239 0000495 295.8900  64.2225 14.19528971128754
